{
  "type": "FeatureCollection",
  "features": [
    {
      "type": "Feature",
      "properties": {
        "norad_id": 27954,
        "name": "GALAXY 13 (HORIZONS-1)",
        "group": "intelsat",
        "lat": 0.9151792972700307,
        "lon": -177.1754522640032,
        "alt_km": 35782.92397113101,
        "timestamp": "2025-12-09T16:56:36.247775+00:00",
        "meta_object_name": "GALAXY 13 (HORIZONS-1)",
        "meta_object_id": "2003-044A",
        "meta_epoch": "2025-12-09T11:51:44.140032",
        "meta_mean_motion": 1.00270089,
        "meta_eccentricity": 0.0002024,
        "meta_inclination": 0.9271,
        "meta_ra_of_asc_node": 86.5122,
        "meta_arg_of_pericenter": 162.1797,
        "meta_mean_anomaly": 217.7304,
        "meta_ephemeris_type": 0,
        "meta_classification_type": "U",
        "meta_norad_cat_id": 27954,
        "meta_element_set_no": 999,
        "meta_rev_at_epoch": 4467,
        "meta_bstar": 0,
        "meta_mean_motion_dot": 1.35e-06,
        "meta_mean_motion_ddot": 0,
        "tle_line1": "1 27954U 03044A   25343.49426088  .00000135  00000+0  00000+0 0  9993",
        "tle_line2": "2 27954   0.9271  86.5122 0002024 162.1797 217.7304  1.00270089 44675"
      },
      "geometry": {
        "type": "Point",
        "coordinates": [
          -177.1754522640032,
          0.9151792972700307
        ]
      }
    },
    {
      "type": "Feature",
      "properties": {
        "norad_id": 28358,
        "name": "INTELSAT 10-02",
        "group": "intelsat",
        "lat": -0.02723554737643541,
        "lon": -28.120950815103246,
        "alt_km": 35782.91037893621,
        "timestamp": "2025-12-09T16:56:36.247788+00:00",
        "meta_object_name": "INTELSAT 10-02",
        "meta_object_id": "2004-022A",
        "meta_epoch": "2025-12-09T06:50:38.879808",
        "meta_mean_motion": 1.00271108,
        "meta_eccentricity": 0.0001202,
        "meta_inclination": 0.0278,
        "meta_ra_of_asc_node": 66.818,
        "meta_arg_of_pericenter": 216.4539,
        "meta_mean_anomaly": 256.6971,
        "meta_ephemeris_type": 0,
        "meta_classification_type": "U",
        "meta_norad_cat_id": 28358,
        "meta_element_set_no": 999,
        "meta_rev_at_epoch": 7865,
        "meta_bstar": 0,
        "meta_mean_motion_dot": -9e-08,
        "meta_mean_motion_ddot": 0,
        "tle_line1": "1 28358U 04022A   25343.28517222 -.00000009  00000+0  00000+0 0  9998",
        "tle_line2": "2 28358   0.0278  66.8180 0001202 216.4539 256.6971  1.00271108 78651"
      },
      "geometry": {
        "type": "Point",
        "coordinates": [
          -28.120950815103246,
          -0.02723554737643541
        ]
      }
    },
    {
      "type": "Feature",
      "properties": {
        "norad_id": 28626,
        "name": "XM-3 (RHYTHM)",
        "group": "intelsat",
        "lat": 0.07602458437175785,
        "lon": 101.58051659678411,
        "alt_km": 36162.23197356652,
        "timestamp": "2025-12-09T16:56:36.247800+00:00",
        "meta_object_name": "XM-3 (RHYTHM)",
        "meta_object_id": "2005-008A",
        "meta_epoch": "2025-12-09T10:46:01.308000",
        "meta_mean_motion": 0.98953733,
        "meta_eccentricity": 0.0001372,
        "meta_inclination": 0.1663,
        "meta_ra_of_asc_node": 81.1985,
        "meta_arg_of_pericenter": 264.6619,
        "meta_mean_anomaly": 24.0313,
        "meta_ephemeris_type": 0,
        "meta_classification_type": "U",
        "meta_norad_cat_id": 28626,
        "meta_element_set_no": 999,
        "meta_rev_at_epoch": 4071,
        "meta_bstar": 0,
        "meta_mean_motion_dot": -2.4e-06,
        "meta_mean_motion_ddot": 0,
        "tle_line1": "1 28626U 05008A   25343.44862625 -.00000240  00000+0  00000+0 0  9996",
        "tle_line2": "2 28626   0.1663  81.1985 0001372 264.6619  24.0313  0.98953733 40713"
      },
      "geometry": {
        "type": "Point",
        "coordinates": [
          101.58051659678411,
          0.07602458437175785
        ]
      }
    },
    {
      "type": "Feature",
      "properties": {
        "norad_id": 28659,
        "name": "DIRECTV 8",
        "group": "intelsat",
        "lat": -0.021484228383701145,
        "lon": -146.23127303225556,
        "alt_km": 35777.191354114606,
        "timestamp": "2025-12-09T16:56:36.247812+00:00",
        "meta_object_name": "DIRECTV 8",
        "meta_object_id": "2005-019A",
        "meta_epoch": "2025-12-09T12:12:55.941120",
        "meta_mean_motion": 1.00271942,
        "meta_eccentricity": 0.0003183,
        "meta_inclination": 0.0171,
        "meta_ra_of_asc_node": 5.5935,
        "meta_arg_of_pericenter": 257.2096,
        "meta_mean_anomaly": 239.8843,
        "meta_ephemeris_type": 0,
        "meta_classification_type": "U",
        "meta_norad_cat_id": 28659,
        "meta_element_set_no": 999,
        "meta_rev_at_epoch": 7517,
        "meta_bstar": 0,
        "meta_mean_motion_dot": 3e-08,
        "meta_mean_motion_ddot": 0,
        "tle_line1": "1 28659U 05019A   25343.50898080  .00000003  00000+0  00000+0 0  9991",
        "tle_line2": "2 28659   0.0171   5.5935 0003183 257.2096 239.8843  1.00271942 75177"
      },
      "geometry": {
        "type": "Point",
        "coordinates": [
          -146.23127303225556,
          -0.021484228383701145
        ]
      }
    },
    {
      "type": "Feature",
      "properties": {
        "norad_id": 28702,
        "name": "GALAXY 28 (G-28)",
        "group": "intelsat",
        "lat": 0.8094440626300264,
        "lon": -115.83026425484019,
        "alt_km": 35775.311026424366,
        "timestamp": "2025-12-09T16:56:36.247824+00:00",
        "meta_object_name": "GALAXY 28 (G-28)",
        "meta_object_id": "2005-022A",
        "meta_epoch": "2025-12-09T12:29:48.391872",
        "meta_mean_motion": 1.00271081,
        "meta_eccentricity": 0.0002686,
        "meta_inclination": 2.8104,
        "meta_ra_of_asc_node": 81.3192,
        "meta_arg_of_pericenter": 179.8142,
        "meta_mean_anomaly": 276.1436,
        "meta_ephemeris_type": 0,
        "meta_classification_type": "U",
        "meta_norad_cat_id": 28702,
        "meta_element_set_no": 999,
        "meta_rev_at_epoch": 5007,
        "meta_bstar": 0,
        "meta_mean_motion_dot": -1.85e-06,
        "meta_mean_motion_ddot": 0,
        "tle_line1": "1 28702U 05022A   25343.52069898 -.00000185  00000+0  00000+0 0  9995",
        "tle_line2": "2 28702   2.8104  81.3192 0002686 179.8142 276.1436  1.00271081 50075"
      },
      "geometry": {
        "type": "Point",
        "coordinates": [
          -115.83026425484019,
          0.8094440626300264
        ]
      }
    },
    {
      "type": "Feature",
      "properties": {
        "norad_id": 29236,
        "name": "GALAXY 16 (G-16)",
        "group": "intelsat",
        "lat": -0.00367598836815108,
        "lon": -126.1807723523456,
        "alt_km": 35774.58567109758,
        "timestamp": "2025-12-09T16:56:36.247837+00:00",
        "meta_object_name": "GALAXY 16 (G-16)",
        "meta_object_id": "2006-023A",
        "meta_epoch": "2025-12-09T10:14:01.469760",
        "meta_mean_motion": 1.00272226,
        "meta_eccentricity": 0.0002832,
        "meta_inclination": 0.0146,
        "meta_ra_of_asc_node": 104.6172,
        "meta_arg_of_pericenter": 147.4625,
        "meta_mean_anomaly": 240.8321,
        "meta_ephemeris_type": 0,
        "meta_classification_type": "U",
        "meta_norad_cat_id": 29236,
        "meta_element_set_no": 999,
        "meta_rev_at_epoch": 7107,
        "meta_bstar": 0,
        "meta_mean_motion_dot": -1.25e-06,
        "meta_mean_motion_ddot": 0,
        "tle_line1": "1 29236U 06023A   25343.42640590 -.00000125  00000+0  00000+0 0  9997",
        "tle_line2": "2 29236   0.0146 104.6172 0002832 147.4625 240.8321  1.00272226 71077"
      },
      "geometry": {
        "type": "Point",
        "coordinates": [
          -126.1807723523456,
          -0.00367598836815108
        ]
      }
    },
    {
      "type": "Feature",
      "properties": {
        "norad_id": 29494,
        "name": "DIRECTV 9S",
        "group": "intelsat",
        "lat": 0.9945156247356816,
        "lon": -128.37602384998397,
        "alt_km": 35774.63728207519,
        "timestamp": "2025-12-09T16:56:36.247865+00:00",
        "meta_object_name": "DIRECTV 9S",
        "meta_object_id": "2006-043A",
        "meta_epoch": "2025-12-09T10:12:41.738976",
        "meta_mean_motion": 1.00270713,
        "meta_eccentricity": 0.0003164,
        "meta_inclination": 1.9317,
        "meta_ra_of_asc_node": 83.2413,
        "meta_arg_of_pericenter": 178.2098,
        "meta_mean_anomaly": 228.9243,
        "meta_ephemeris_type": 0,
        "meta_classification_type": "U",
        "meta_norad_cat_id": 29494,
        "meta_element_set_no": 999,
        "meta_rev_at_epoch": 4948,
        "meta_bstar": 0,
        "meta_mean_motion_dot": -1.11e-06,
        "meta_mean_motion_ddot": 0,
        "tle_line1": "1 29494U 06043A   25343.42548309 -.00000111  00000+0  00000+0 0  9995",
        "tle_line2": "2 29494   1.9317  83.2413 0003164 178.2098 228.9243  1.00270713 49487"
      },
      "geometry": {
        "type": "Point",
        "coordinates": [
          -128.37602384998397,
          0.9945156247356816
        ]
      }
    }
  ]
}